{
  "type": "FeatureCollection",
  "features": [
    {
      "type": "Feature",
      "properties": {
        "norad_id": 44334,
        "name": "EUTELSAT 7C",
        "group": "eutelsat",
        "lat": 0.03954884388017847,
        "lon": -124.38656408014191,
        "alt_km": 35772.50046414828,
        "timestamp": "2025-12-12T09:49:08.399420+00:00",
        "meta_object_name": "EUTELSAT 7C",
        "meta_object_id": "2019-034B",
        "meta_epoch": "2025-12-12T03:14:30.886080",
        "meta_mean_motion": 1.00271596,
        "meta_eccentricity": 0.0003251,
        "meta_inclination": 0.072,
        "meta_ra_of_asc_node": 178.1084,
        "meta_arg_of_pericenter": 65.7254,
        "meta_mean_anomaly": 252.8644,
        "meta_ephemeris_type": 0,
        "meta_classification_type": "U",
        "meta_norad_cat_id": 44334,
        "meta_element_set_no": 999,
        "meta_rev_at_epoch": 496,
        "meta_bstar": 0,
        "meta_mean_motion_dot": 5.8e-07,
        "meta_mean_motion_ddot": 0,
        "tle_line1": "1 44334U 19034B   25346.13507970  .00000058  00000+0  00000+0 0  9998",
        "tle_line2": "2 44334   0.0720 178.1084 0003251  65.7254 252.8644  1.00271596  4969"
      },
      "geometry": {
        "type": "Point",
        "coordinates": [
          -124.38656408014191,
          0.03954884388017847
        ]
      }
    },
    {
      "type": "Feature",
      "properties": {
        "norad_id": 44624,
        "name": "EUTELSAT 5 WEST B",
        "group": "eutelsat",
        "lat": -0.06833471051995121,
        "lon": -136.3899291573076,
        "alt_km": 35774.88695041168,
        "timestamp": "2025-12-12T09:49:08.399432+00:00",
        "meta_object_name": "EUTELSAT 5 WEST B",
        "meta_object_id": "2019-067A",
        "meta_epoch": "2025-12-12T03:11:01.220064",
        "meta_mean_motion": 1.00271785,
        "meta_eccentricity": 0.0003369,
        "meta_inclination": 0.0623,
        "meta_ra_of_asc_node": 347.8721,
        "meta_arg_of_pericenter": 274.027,
        "meta_mean_anomaly": 221.9383,
        "meta_ephemeris_type": 0,
        "meta_classification_type": "U",
        "meta_norad_cat_id": 44624,
        "meta_element_set_no": 999,
        "meta_rev_at_epoch": 2256,
        "meta_bstar": 0,
        "meta_mean_motion_dot": -3.3e-07,
        "meta_mean_motion_ddot": 0,
        "tle_line1": "1 44624U 19067A   25346.13265301 -.00000033  00000+0  00000+0 0  9999",
        "tle_line2": "2 44624   0.0623 347.8721 0003369 274.0270 221.9383  1.00271785 22562"
      },
      "geometry": {
        "type": "Point",
        "coordinates": [
          -136.3899291573076,
          -0.06833471051995121
        ]
      }
    },
    {
      "type": "Feature",
      "properties": {
        "norad_id": 45027,
        "name": "EUTELSAT KONNECT",
        "group": "eutelsat",
        "lat": 0.024835097415709807,
        "lon": -124.19128530878004,
        "alt_km": 35782.318546665694,
        "timestamp": "2025-12-12T09:49:08.399444+00:00",
        "meta_object_name": "EUTELSAT KONNECT",
        "meta_object_id": "2020-005B",
        "meta_epoch": "2025-12-12T01:31:48.222048",
        "meta_mean_motion": 1.00270011,
        "meta_eccentricity": 0.0001596,
        "meta_inclination": 0.0715,
        "meta_ra_of_asc_node": 96.0285,
        "meta_arg_of_pericenter": 191.0796,
        "meta_mean_anomaly": 184.048,
        "meta_ephemeris_type": 0,
        "meta_classification_type": "U",
        "meta_norad_cat_id": 45027,
        "meta_element_set_no": 999,
        "meta_rev_at_epoch": 2246,
        "meta_bstar": 0,
        "meta_mean_motion_dot": 5.8e-07,
        "meta_mean_motion_ddot": 0,
        "tle_line1": "1 45027U 20005B   25346.06375257  .00000058  00000+0  00000+0 0  9991",
        "tle_line2": "2 45027   0.0715  96.0285 0001596 191.0796 184.0480  1.00270011 22468"
      },
      "geometry": {
        "type": "Point",
        "coordinates": [
          -124.19128530878004,
          0.024835097415709807
        ]
      }
    },
    {
      "type": "Feature",
      "properties": {
        "norad_id": 49056,
        "name": "EUTELSAT QUANTUM",
        "group": "eutelsat",
        "lat": -0.03027813308040285,
        "lon": -83.6629339966107,
        "alt_km": 35770.46857583903,
        "timestamp": "2025-12-12T09:49:08.399456+00:00",
        "meta_object_name": "EUTELSAT QUANTUM",
        "meta_object_id": "2021-069B",
        "meta_epoch": "2025-12-12T03:26:07.275264",
        "meta_mean_motion": 1.00272405,
        "meta_eccentricity": 0.0003647,
        "meta_inclination": 0.0207,
        "meta_ra_of_asc_node": 35.1128,
        "meta_arg_of_pericenter": 238.9314,
        "meta_mean_anomaly": 266.2792,
        "meta_ephemeris_type": 0,
        "meta_classification_type": "U",
        "meta_norad_cat_id": 49056,
        "meta_element_set_no": 999,
        "meta_rev_at_epoch": 1605,
        "meta_bstar": 0,
        "meta_mean_motion_dot": 1.35e-06,
        "meta_mean_motion_ddot": 0,
        "tle_line1": "1 49056U 21069B   25346.14313976  .00000135  00000+0  00000+0 0  9993",
        "tle_line2": "2 49056   0.0207  35.1128 0003647 238.9314 266.2792  1.00272405 16052"
      },
      "geometry": {
        "type": "Point",
        "coordinates": [
          -83.6629339966107,
          -0.03027813308040285
        ]
      }
    },
    {
      "type": "Feature",
      "properties": {
        "norad_id": 53765,
        "name": "EUTELSAT KONNECT VHTS",
        "group": "eutelsat",
        "lat": 0.02698034223892699,
        "lon": -128.64916832868994,
        "alt_km": 35775.67375150118,
        "timestamp": "2025-12-12T09:49:08.399469+00:00",
        "meta_object_name": "EUTELSAT KONNECT VHTS",
        "meta_object_id": "2022-110A",
        "meta_epoch": "2025-12-12T03:13:16.004064",
        "meta_mean_motion": 1.00271767,
        "meta_eccentricity": 0.0002492,
        "meta_inclination": 0.0639,
        "meta_ra_of_asc_node": 101.3299,
        "meta_arg_of_pericenter": 139.4387,
        "meta_mean_anomaly": 251.3532,
        "meta_ephemeris_type": 0,
        "meta_classification_type": "U",
        "meta_norad_cat_id": 53765,
        "meta_element_set_no": 999,
        "meta_rev_at_epoch": 495,
        "meta_bstar": 0,
        "meta_mean_motion_dot": 2.7e-07,
        "meta_mean_motion_ddot": 0,
        "tle_line1": "1 53765U 22110A   25346.13421301  .00000027  00000+0  00000+0 0  9994",
        "tle_line2": "2 53765   0.0639 101.3299 0002492 139.4387 251.3532  1.00271767  4953"
      },
      "geometry": {
        "type": "Point",
        "coordinates": [
          -128.64916832868994,
          0.02698034223892699
        ]
      }
    },
    {
      "type": "Feature",
      "properties": {
        "norad_id": 54048,
        "name": "EUTELSAT HOTBIRD 13F",
        "group": "eutelsat",
        "lat": -0.05333403804225823,
        "lon": -118.3862999445001,
        "alt_km": 35790.898990410526,
        "timestamp": "2025-12-12T09:49:08.399480+00:00",
        "meta_object_name": "EUTELSAT HOTBIRD 13F",
        "meta_object_id": "2022-134A",
        "meta_epoch": "2025-12-11T23:36:58.233312",
        "meta_mean_motion": 1.00269374,
        "meta_eccentricity": 0.0002241,
        "meta_inclination": 0.048,
        "meta_ra_of_asc_node": 293.1086,
        "meta_arg_of_pericenter": 64.7327,
        "meta_mean_anomaly": 90.3432,
        "meta_ephemeris_type": 0,
        "meta_classification_type": "U",
        "meta_norad_cat_id": 54048,
        "meta_element_set_no": 999,
        "meta_rev_at_epoch": 1150,
        "meta_bstar": 0,
        "meta_mean_motion_dot": 9.6e-07,
        "meta_mean_motion_ddot": 0,
        "tle_line1": "1 54048U 22134A   25345.98400733  .00000096  00000+0  00000+0 0  9999",
        "tle_line2": "2 54048   0.0480 293.1086 0002241  64.7327  90.3432  1.00269374 11502"
      },
      "geometry": {
        "type": "Point",
        "coordinates": [
          -118.3862999445001,
          -0.05333403804225823
        ]
      }
    },
    {
      "type": "Feature",
      "properties": {
        "norad_id": 54225,
        "name": "EUTELSAT HOTBIRD 13G",
        "group": "eutelsat",
        "lat": -0.01277775533726975,
        "lon": -118.3585966647049,
        "alt_km": 35782.38351576476,
        "timestamp": "2025-12-12T09:49:08.399492+00:00",
        "meta_object_name": "EUTELSAT HOTBIRD 13G",
        "meta_object_id": "2022-146A",
        "meta_epoch": "2025-12-12T03:16:08.230368",
        "meta_mean_motion": 1.00271133,
        "meta_eccentricity": 0.0001821,
        "meta_inclination": 0.0481,
        "meta_ra_of_asc_node": 233.9865,
        "meta_arg_of_pericenter": 307.8152,
        "meta_mean_anomaly": 321.3083,
        "meta_ephemeris_type": 0,
        "meta_classification_type": "U",
        "meta_norad_cat_id": 54225,
        "meta_element_set_no": 999,
        "meta_rev_at_epoch": 559,
        "meta_bstar": 0,
        "meta_mean_motion_dot": 9.6e-07,
        "meta_mean_motion_ddot": 0,
        "tle_line1": "1 54225U 22146A   25346.13620637  .00000096  00000+0  00000+0 0  9994",
        "tle_line2": "2 54225   0.0481 233.9865 0001821 307.8152 321.3083  1.00271133  5594"
      },
      "geometry": {
        "type": "Point",
        "coordinates": [
          -118.3585966647049,
          -0.01277775533726975
        ]
      }
    }
  ]
}